STARLINK-32249          
1 60444U 24144V   26068.68424351 -.00002050  00000+0 -57154-4 0  9992
2 60444  53.1603 216.7732 0001284  52.5165 307.5953 15.30174225 89352
NUSAT-48 (HENRIETTA LE*)
1 60498U 24149AG  26068.80506098  .00012988  00000+0  45212-3 0  9999
2 60498  97.3923 150.8264 0002754 263.3026  96.7901 15.29812597 86946
